OBJECT_NAME,OBJECT_ID,EPOCH,MEAN_MOTION,ECCENTRICITY,INCLINATION,RA_OF_ASC_NODE,ARG_OF_PERICENTER,MEAN_ANOMALY,EPHEMERIS_TYPE,CLASSIFICATION_TYPE,NORAD_CAT_ID,ELEMENT_SET_NO,REV_AT_EPOCH,BSTAR,MEAN_MOTION_DOT,MEAN_MOTION_DDOT
HODOYOSHI-4,2014-033B,2026-06-18T18:46:31.713600,14.88128376,.0022475,97.5445,354.5270,302.8015,57.1037,0,U,40011,999,64904,.55364E-4,.459E-5,0
DEIMOS-2,2014-033D,2026-06-18T17:22:23.524032,14.93726311,.0001345,97.5819,44.1583,53.1669,306.9674,0,U,40013,999,63795,.8324E-4,.827E-5,0
HODOYOSHI-3,2014-033F,2026-06-18T11:09:29.486304,14.85390737,.0032572,97.6418,332.4539,353.0921,6.9842,0,U,40015,999,64781,.95725E-4,.779E-5,0
SPOT 7,2014-034A,2026-06-18T16:31:12.205344,14.60960301,.0001238,98.0626,232.1416,90.3056,269.8287,0,U,40053,999,63735,.11345E-3,.511E-5,0
SKYSAT-B,2014-037D,2026-06-18T14:30:28.423296,14.88031001,.0004165,98.3840,128.6502,275.7139,84.3601,0,U,40072,999,64617,.11733E-3,.1016E-4,0
WORLDVIEW-3 (WV-3),2014-048A,2026-06-18T15:35:36.724704,14.85024040,.0000863,97.8567,244.4625,23.8744,336.2511,0,U,40115,999,64212,.84561E-4,.668E-5,0
GAOFEN-2,2014-049A,2026-06-18T17:31:47.042112,14.80899510,.0006227,98.0105,233.9362,221.2032,138.8710,0,U,40118,999,63946,.73836E-4,.517E-5,0
YAOGAN-21,2014-053A,2026-06-18T17:39:47.902176,15.26390432,.0009937,97.1464,209.9055,89.2363,271.0015,0,U,40143,999,65519,.1944E-3,.4995E-4,0
YAOGAN-22,2014-063A,2026-06-18T16:57:39.691296,13.15531011,.0006377,100.7726,321.0051,181.8744,178.2344,0,U,40275,999,56001,-.77509E-5,-.5E-6,0
ASNARO,2014-070A,2026-06-18T16:10:31.077120,15.19457675,.0005709,97.3449,245.7483,160.6795,199.4657,0,U,40298,999,64423,.42813E-3,.9019E-4,0
YAOGAN-24,2014-072A,2026-06-18T17:00:44.443008,14.76225264,.001253,98.1498,307.0597,258.2296,101.7508,0,U,40310,999,62394,.10319E-3,.662E-5,0
CBERS 4,2014-079A,2026-06-18T17:02:29.062176,14.35509578,.0001791,98.3528,226.4940,62.4129,297.7239,0,U,40336,999,60417,.57841E-4,.124E-5,0
YAOGAN-26,2014-088A,2026-06-18T18:00:23.594112,15.47396316,.0005877,97.0642,169.9225,64.7439,295.4420,0,U,40362,999,63794,.22962E-3,.11674E-3,0
SMAP,2015-003A,2026-06-18T15:39:40.135104,14.63367690,.0001341,98.1276,176.7263,96.3262,263.8093,0,U,40376,999,60783,.71608E-4,.323E-5,0
KOMPSAT-3A,2015-014A,2026-06-18T17:20:55.392576,15.54052131,.0056657,97.6888,161.1976,168.9056,191.3461,0,U,40536,999,62205,.28315E-3,.19583E-3,0
SENTINEL-2A,2015-028A,2026-06-18T16:23:50.555328,14.30816683,.0001113,98.5684,244.5137,90.8131,269.3180,0,U,40697,999,57394,.15345E-3,.359E-5,0
GAOFEN-8,2015-030A,2026-06-18T16:56:31.377408,15.45998749,.0008886,97.6898,3.1665,180.8362,179.2873,0,U,40701,999,61168,.34914E-3,.16973E-3,0
CARBONITE 1 (CBNT-1),2015-032D,2026-06-18T17:36:36.686880,14.83593316,.0013076,97.6504,347.7348,292.6976,67.2856,0,U,40718,999,58957,.23154E-3,.186E-4,0
YAOGAN-27,2015-040A,2026-06-18T16:49:28.037280,13.16070861,.0007704,100.1152,156.0184,206.5923,153.4796,0,U,40878,999,51786,.80018E-3,.262E-5,0
GAOFEN-9 01,2015-047A,2026-06-18T17:59:18.882240,14.82886429,.0028481,97.6274,205.3734,132.9027,227.4585,0,U,40894,999,58042,.10313E-3,.791E-5,0
YAOGAN-28,2015-064A,2026-06-18T16:45:50.533056,15.27436461,.0010773,97.3082,307.9290,178.0570,182.0713,0,U,41026,999,59091,.19637E-3,.5208E-4,0
YAOGAN-29,2015-069A,2026-06-18T17:30:35.408736,14.83086670,.0002587,98.0020,198.3652,51.8619,308.2827,0,U,41038,999,57085,.2949E-4,.186E-5,0
KENT RIDGE 1,2015-077B,2026-06-18T14:29:54.580416,15.23139502,.0008246,14.9794,255.4525,258.6029,101.3367,0,U,41167,999,58131,.10652E-3,.3355E-4,0
GAOFEN-4,2015-083A,2026-06-18T15:08:05.976672,1.00268207,.0004364,0.3622,83.8351,113.5197,42.2100,0,U,41194,999,3854,0,-.341E-5,0
JASON-3,2016-002A,2026-06-18T15:12:31.457952,12.87628064,.0008502,66.0404,122.7938,272.7432,87.2614,0,U,41240,999,48743,.54088E-4,-.49E-6,0
SENTINEL-3A,2016-011A,2026-06-18T16:32:33.752256,14.26732755,.0001411,98.6250,237.0517,101.1895,258.9444,0,U,41335,999,53827,.56553E-4,.93E-6,0
ZIYUAN 3-02 (ZY 3-02),2016-033A,2026-06-18T18:26:15.756288,15.21192222,.0012339,97.3833,245.5136,285.1692,74.8179,0,U,41556,999,55822,.20783E-3,.4574E-4,0
CARTOSAT-2C,2016-040A,2026-06-18T18:33:11.137248,15.19203249,.0010036,97.4475,229.7303,126.0094,234.2073,0,U,41599,999,55395,.2103E-3,.4363E-4,0
SKYSAT-C1,2016-040C,2026-06-18T01:30:50.674464,15.36313451,.00034024,96.9555,200.7355,56.2857,303.8712,0,U,41601,999,55800,.19418645E-3,.6801E-4,0
LAPAN-A3,2016-040E,2026-06-18T18:10:58.376640,15.33113166,.0010705,97.1490,165.8517,20.5565,339.6106,0,U,41603,999,55505,.91378E-4,.2852E-4,0
GAOFEN-3,2016-049A,2026-06-18T17:58:37.847424,14.42215251,.0001435,98.4006,177.5117,99.0540,261.0812,0,U,41727,999,51887,-.18097E-4,-.103E-5,0
