HODOYOSHI-4             
1 40011U 14033B   26169.78231150  .00000459  00000+0  55364-4 0  9992
2 40011  97.5445 354.5270 0022475 302.8015  57.1037 14.88128376649041
DEIMOS-2                
1 40013U 14033D   26169.72388338  .00000827  00000+0  83240-4 0  9992
2 40013  97.5819  44.1583 0001345  53.1669 306.9674 14.93726311637959
HODOYOSHI-3             
1 40015U 14033F   26169.46492461  .00000779  00000+0  95725-4 0  9995
2 40015  97.6418 332.4539 0032572 353.0921   6.9842 14.85390737647810
SPOT 7                  
1 40053U 14034A   26169.68833571  .00000511  00000+0  11345-3 0  9992
2 40053  98.0626 232.1416 0001238  90.3056 269.8287 14.60960301637357
SKYSAT-B                
1 40072U 14037D   26169.60449564  .00001016  00000+0  11733-3 0  9995
2 40072  98.3840 128.6502 0004165 275.7139  84.3601 14.88031001646173
WORLDVIEW-3 (WV-3)      
1 40115U 14048A   26169.64973061  .00000668  00000+0  84561-4 0  9995
2 40115  97.8567 244.4625 0000863  23.8744 336.2511 14.85024040642121
GAOFEN-2                
1 40118U 14049A   26169.73040558  .00000517  00000+0  73836-4 0  9991
2 40118  98.0105 233.9362 0006227 221.2032 138.8710 14.80899510639467
YAOGAN-21               
1 40143U 14053A   26169.73597109  .00004995  00000+0  19440-3 0  9997
2 40143  97.1464 209.9055 0009937  89.2363 271.0015 15.26390432655191
YAOGAN-22               
1 40275U 14063A   26169.70670939 -.00000050  00000+0 -77509-5 0  9996
2 40275 100.7726 321.0051 0006377 181.8744 178.2344 13.15531011560013
ASNARO                  
1 40298U 14070A   26169.67397080  .00009019  00000+0  42813-3 0  9998
2 40298  97.3449 245.7483 0005709 160.6795 199.4657 15.19457675644239
YAOGAN-24               
1 40310U 14072A   26169.70884772  .00000662  00000+0  10319-3 0  9999
2 40310  98.1498 307.0597 0012530 258.2296 101.7508 14.76225264623940
CBERS 4                 
1 40336U 14079A   26169.71005859  .00000124  00000+0  57841-4 0  9991
2 40336  98.3528 226.4940 0001791  62.4129 297.7239 14.35509578604176
YAOGAN-26               
1 40362U 14088A   26169.75027308  .00011674  00000+0  22962-3 0  9994
2 40362  97.0642 169.9225 0005877  64.7439 295.4420 15.47396316637949
SMAP                    
1 40376U 15003A   26169.65254786  .00000323  00000+0  71608-4 0  9999
2 40376  98.1276 176.7263 0001341  96.3262 263.8093 14.63367690607834
KOMPSAT-3A              
1 40536U 15014A   26169.72286334  .00019583  00000+0  28315-3 0  9995
2 40536  97.6888 161.1976 0056657 168.9056 191.3461 15.54052131622058
SENTINEL-2A             
1 40697U 15028A   26169.68322402  .00000359  00000+0  15345-3 0  9990
2 40697  98.5684 244.5137 0001113  90.8131 269.3180 14.30816683573949
GAOFEN-8                
1 40701U 15030A   26169.70591872  .00016973  00000+0  34914-3 0  9993
2 40701  97.6898   3.1665 0008886 180.8362 179.2873 15.45998749611680
CARBONITE 1 (CBNT-1)    
1 40718U 15032D   26169.73375795  .00001860  00000+0  23154-3 0  9993
2 40718  97.6504 347.7348 0013076 292.6976  67.2856 14.83593316589578
YAOGAN-27               
1 40878U 15040A   26169.70101895  .00000262  00000+0  80018-3 0  9991
2 40878 100.1152 156.0184 0007704 206.5923 153.4796 13.16070861517864
GAOFEN-9 01             
1 40894U 15047A   26169.74952410  .00000791  00000+0  10313-3 0  9995
2 40894  97.6274 205.3734 0028481 132.9027 227.4585 14.82886429580427
YAOGAN-28               
1 41026U 15064A   26169.69850154  .00005208  00000+0  19637-3 0  9994
2 41026  97.3082 307.9290 0010773 178.0570 182.0713 15.27436461590915
YAOGAN-29               
1 41038U 15069A   26169.72957649  .00000186  00000+0  29490-4 0  9992
2 41038  98.0020 198.3652 0002587  51.8619 308.2827 14.83086670570851
KENT RIDGE 1            
1 41167U 15077B   26169.60410394  .00003355  00000+0  10652-3 0  9992
2 41167  14.9794 255.4525 0008246 258.6029 101.3367 15.23139502581315
GAOFEN-4                
1 41194U 15083A   26169.63062473 -.00000341  00000+0  00000+0 0  9998
2 41194   0.3622  83.8351 0004364 113.5197  42.2100  1.00268207 38541
JASON-3                 
1 41240U 16002A   26169.63369743 -.00000049  00000+0  54088-4 0  9997
2 41240  66.0404 122.7938 0008502 272.7432  87.2614 12.87628064487435
SENTINEL-3A             
1 41335U 16011A   26169.68927954  .00000093  00000+0  56553-4 0  9998
2 41335  98.6250 237.0517 0001411 101.1895 258.9444 14.26732755538278
ZIYUAN 3-02 (ZY 3-02)   
1 41556U 16033A   26169.76823792  .00004574  00000+0  20783-3 0  9994
2 41556  97.3833 245.5136 0012339 285.1692  74.8179 15.21192222558228
CARTOSAT-2C             
1 41599U 16040A   26169.77304557  .00004363  00000+0  21030-3 0  9995
2 41599  97.4475 229.7303 0010036 126.0094 234.2073 15.19203249553958
SKYSAT-C1               
1 41601U 16040C   26169.06308651  .00006801  00000+0  19419-3 0  9997
2 41601  96.9555 200.7355 0003402  56.2857 303.8712 15.36313451558001
LAPAN-A3                
1 41603U 16040E   26169.75762010  .00002852  00000+0  91378-4 0  9995
2 41603  97.1490 165.8517 0010705  20.5565 339.6106 15.33113166555053
GAOFEN-3                
1 41727U 16049A   26169.74904916 -.00000103  00000+0 -18097-4 0  9999
2 41727  98.4006 177.5117 0001435  99.0540 261.0812 14.42215251518875
